CTC2_L_00074016-03
1 10062U 23030BJ  26075.70041667  .00000000  00000+0  00000-0 0  9997
2 10062  55.0000 180.0000 0000000   0.0000   0.0000 15.28598846    17
CTC2_L_00074016-04
1 10063U 24448PX  26075.70041667  .00000000  00000+0  00000-0 0  9992
2 10063  55.0000 180.0000 0000000   0.0000  90.0000 15.28598846    17
CTC2_L_00074017-01
1 10064U 26931JR  26075.70041667  .00000000  00000+0  00000-0 0  9992
2 10064  55.0000 192.0000 0000000   0.0000 192.0000 15.28598846    14
CTC2_L_00074017-02
1 10065U 25302IU  26075.70041667  .00000000  00000+0  00000-0 0  9994
2 10065  55.0000 192.0000 0000000   0.0000 282.0000 15.28598846    15
CTC2_L_00074017-03
1 10066U 23762FQ  26075.70041667  .00000000  00000+0  00000-0 0  9993
2 10066  55.0000 192.0000 0000000   0.0000  12.0000 15.28598846    17
CTC2_L_00074017-04
1 10067U 22540FK  26075.70041667  .00000000  00000+0  00000-0 0  9997
2 10067  55.0000 192.0000 0000000   0.0000 102.0000 15.28598846    18
CTC2_L_00074018-01
1 10068U 24249ZO  26075.70041667  .00000000  00000+0  00000-0 0  9996
2 10068  55.0000 204.0000 0000000   0.0000 204.0000 15.28598846    16
CTC2_L_00074018-02
1 10069U 23964CM  26075.70041667  .00000000  00000+0  00000-0 0  9990
2 10069  55.0000 204.0000 0000000   0.0000 294.0000 15.28598846    16
CTC2_L_00074018-03
1 10070U 22765KQ  26075.70041667  .00000000  00000+0  00000-0 0  9990
2 10070  55.0000 204.0000 0000000   0.0000  24.0000 15.28598846    19
CTC2_L_00074018-04
1 10071U 23542CA  26075.70041667  .00000000  00000+0  00000-0 0  9995
2 10071  55.0000 204.0000 0000000   0.0000 114.0000 15.28598846    10
CTC2_L_00074019-01
1 10072U 25958UU  26075.70041667  .00000000  00000+0  00000-0 0  9999
2 10072  55.0000 216.0000 0000000   0.0000 216.0000 15.28598846    17
CTC2_L_00074019-02
1 10073U 26261AE  26075.70041667  .00000000  00000+0  00000-0 0  9998
2 10073  55.0000 216.0000 0000000   0.0000 306.0000 15.28598846    18
CTC2_L_00074019-03
1 10074U 22184AH  26075.70041667  .00000000  00000+0  00000-0 0  9999
2 10074  55.0000 216.0000 0000000   0.0000  36.0000 15.28598846    19
CTC2_L_00074019-04
1 10075U 22112KU  26075.70041667  .00000000  00000+0  00000-0 0  9991
2 10075  55.0000 216.0000 0000000   0.0000 126.0000 15.28598846    10
CTC2_L_00074020-01
1 10076U 25567VP  26075.70041667  .00000000  00000+0  00000-0 0  9999
2 10076  55.0000 228.0000 0000000   0.0000 228.0000 15.28598846    17
CTC2_L_00074020-02
1 10077U 22217RR  26075.70041667  .00000000  00000+0  00000-0 0  9999
2 10077  55.0000 228.0000 0000000   0.0000 318.0000 15.28598846    18
CTC2_L_00074020-03
1 10078U 25956EE  26075.70041667  .00000000  00000+0  00000-0 0  9993
2 10078  55.0000 228.0000 0000000   0.0000  48.0000 15.28598846    19
CTC2_L_00074020-04
1 10079U 26282ST  26075.70041667  .00000000  00000+0  00000-0 0  9997
2 10079  55.0000 228.0000 0000000   0.0000 138.0000 15.28598846    10
CTC2_L_00074021-01
1 10080U 24047EM  26075.70041667  .00000000  00000+0  00000-0 0  9996
2 10080  55.0000 240.0000 0000000   0.0000 240.0000 15.28598846    10
CTC2_L_00074021-02
1 10081U 22461LM  26075.70041667  .00000000  00000+0  00000-0 0  9995
2 10081  55.0000 240.0000 0000000   0.0000 330.0000 15.28598846    11
CTC2_L_00074021-03
1 10082U 22418AT  26075.70041667  .00000000  00000+0  00000-0 0  9998
2 10082  55.0000 240.0000 0000000   0.0000  60.0000 15.28598846    12
CTC2_L_00074021-04
1 10083U 25146WQ  26075.70041667  .00000000  00000+0  00000-0 0  9990
2 10083  55.0000 240.0000 0000000   0.0000 150.0000 15.28598846    13
CTC2_L_00074022-01
1 10084U 24769I   26075.70041667  .00000000  00000+0  00000-0 0  9991
2 10084  55.0000 252.0000 0000000   0.0000 252.0000 15.28598846    10
CTC2_L_00074022-02
1 10085U 22632WV  26075.70041667  .00000000  00000+0  00000-0 0  9999
2 10085  55.0000 252.0000 0000000   0.0000 342.0000 15.28598846    11
CTC2_L_00074022-03
1 10086U 25450LQ  26075.70041667  .00000000  00000+0  00000-0 0  9991
2 10086  55.0000 252.0000 0000000   0.0000  72.0000 15.28598846    12
CTC2_L_00074022-04
1 10087U 23372KB  26075.70041667  .00000000  00000+0  00000-0 0  9993
2 10087  55.0000 252.0000 0000000   0.0000 162.0000 15.28598846    13
CTC2_L_00074023-01
1 10088U 25802ZG  26075.70041667  .00000000  00000+0  00000-0 0  9994
2 10088  55.0000 264.0000 0000000   0.0000 264.0000 15.28598846    10
CTC2_L_00074023-02
1 10089U 22201QU  26075.70041667  .00000000  00000+0  00000-0 0  9995
2 10089  55.0000 264.0000 0000000   0.0000 354.0000 15.28598846    11
CTC2_L_00074023-03
1 10090U 22399JR  26075.70041667  .00000000  00000+0  00000-0 0  9995
2 10090  55.0000 264.0000 0000000   0.0000  84.0000 15.28598846    13
CTC2_L_00074023-04
1 10091U 24697HT  26075.70041667  .00000000  00000+0  00000-0 0  9999
2 10091  55.0000 264.0000 0000000   0.0000 174.0000 15.28598846    14
CTC2_L_00074024-01
1 10092U 23841RO  26075.70041667  .00000000  00000+0  00000-0 0  9990
2 10092  55.0000 276.0000 0000000   0.0000 276.0000 15.28598846    11
CTC2_L_00074024-02
1 10093U 23864AJ  26075.70041667  .00000000  00000+0  00000-0 0  9996
2 10093  55.0000 276.0000 0000000   0.0000   6.0000 15.28598846    13
CTC2_L_00074024-03
1 10094U 26674WG  26075.70041667  .00000000  00000+0  00000-0 0  9999
2 10094  55.0000 276.0000 0000000   0.0000  96.0000 15.28598846    13
CTC2_L_00074024-04
1 10095U 23055C   26075.70041667  .00000000  00000+0  00000-0 0  9990
2 10095  55.0000 276.0000 0000000   0.0000 186.0000 15.28598846    14
CTC2_L_00074025-01
1 10096U 23069LP  26075.70041667  .00000000  00000+0  00000-0 0  9996
2 10096  55.0000 288.0000 0000000   0.0000 288.0000 15.28598846    11
CTC2_L_00074025-02
1 10097U 25930FM  26075.70041667  .00000000  00000+0  00000-0 0  9996
2 10097  55.0000 288.0000 0000000   0.0000  18.0000 15.28598846    13
CTC2_L_00074025-03
1 10098U 25192VZ  26075.70041667  .00000000  00000+0  00000-0 0  9997
2 10098  55.0000 288.0000 0000000   0.0000 108.0000 15.28598846    14
CTC2_L_00074025-04
1 10099U 22741QX  26075.70041667  .00000000  00000+0  00000-0 0  9995
2 10099  55.0000 288.0000 0000000   0.0000 198.0000 15.28598846    14
CTC2_L_00074026-01
1 10100U 26196QT  26075.70041667  .00000000  00000+0  00000-0 0  9996
2 10100  55.0000 300.0000 0000000   0.0000 300.0000 15.28598846    17
CTC2_L_00074026-02
1 10101U 22721YR  26075.70041667  .00000000  00000+0  00000-0 0  9997
2 10101  55.0000 300.0000 0000000   0.0000  30.0000 15.28598846    18
CTC2_L_00074026-03
1 10102U 24395MM  26075.70041667  .00000000  00000+0  00000-0 0  9997
2 10102  55.0000 300.0000 0000000   0.0000 120.0000 15.28598846    19
CTC2_L_00074026-04
1 10103U 25244VL  26075.70041667  .00000000  00000+0  00000-0 0  9992
2 10103  55.0000 300.0000 0000000   0.0000 210.0000 15.28598846    10
CTC2_L_00074027-01
1 10104U 25711XG  26075.70041667  .00000000  00000+0  00000-0 0  9992
2 10104  55.0000 312.0000 0000000   0.0000 312.0000 15.28598846    17
CTC2_L_00074027-02
1 10105U 23205FD  26075.70041667  .00000000  00000+0  00000-0 0  9999
2 10105  55.0000 312.0000 0000000   0.0000  42.0000 15.28598846    18
CTC2_L_00074027-03
1 10106U 23002SG  26075.70041667  .00000000  00000+0  00000-0 0  9995
2 10106  55.0000 312.0000 0000000   0.0000 132.0000 15.28598846    19
CTC2_L_00074027-04
1 10107U 24994HR  26075.70041667  .00000000  00000+0  00000-0 0  9997
2 10107  55.0000 312.0000 0000000   0.0000 222.0000 15.28598846    10
CTC2_L_00074028-01
1 10108U 23330BI  26075.70041667  .00000000  00000+0  00000-0 0  9991
2 10108  55.0000 324.0000 0000000   0.0000 324.0000 15.28598846    17
CTC2_L_00074028-02
1 10109U 24505UZ  26075.70041667  .00000000  00000+0  00000-0 0  9997
2 10109  55.0000 324.0000 0000000   0.0000  54.0000 15.28598846    18
CTC2_L_00074028-03
1 10110U 24245BI  26075.70041667  .00000000  00000+0  00000-0 0  9990
2 10110  55.0000 324.0000 0000000   0.0000 144.0000 15.28598846    10
CTC2_L_00074028-04
1 10111U 22295OI  26075.70041667  .00000000  00000+0  00000-0 0  9994
2 10111  55.0000 324.0000 0000000   0.0000 234.0000 15.28598846    11
CTC2_L_00074029-01
1 10112U 26822PG  26075.70041667  .00000000  00000+0  00000-0 0  9995
2 10112  55.0000 336.0000 0000000   0.0000 336.0000 15.28598846    18
CTC2_L_00074029-02
1 10113U 24930XC  26075.70041667  .00000000  00000+0  00000-0 0  9994
2 10113  55.0000 336.0000 0000000   0.0000  66.0000 15.28598846    19
CTC2_L_00074029-03
1 10114U 23029TY  26075.70041667  .00000000  00000+0  00000-0 0  9993
2 10114  55.0000 336.0000 0000000   0.0000 156.0000 15.28598846    10
CTC2_L_00074029-04
1 10115U 25868AM  26075.70041667  .00000000  00000+0  00000-0 0  9997
2 10115  55.0000 336.0000 0000000   0.0000 246.0000 15.28598846    11
CTC2_L_00074030-01
1 10116U 26550BW  26075.70041667  .00000000  00000+0  00000-0 0  9997
2 10116  55.0000 348.0000 0000000   0.0000 348.0000 15.28598846    18
CTC2_L_00074030-02
1 10117U 22365KL  26075.70041667  .00000000  00000+0  00000-0 0  9998
2 10117  55.0000 348.0000 0000000   0.0000  78.0000 15.28598846    19
CTC2_L_00074030-03
1 10118U 26754OU  26075.70041667  .00000000  00000+0  00000-0 0  9995
2 10118  55.0000 348.0000 0000000   0.0000 168.0000 15.28598846    10
CTC2_L_00074030-04
1 10119U 24776VH  26075.70041667  .00000000  00000+0  00000-0 0  9998
2 10119  55.0000 348.0000 0000000   0.0000 258.0000 15.28598846    11
